ORBCOMM FM05            
1 25117U 97084F   25282.75787130  .00001864  00000+0  55448-3 0  9998
2 25117  45.0132 177.8137 0002743  48.5888 311.5199 14.46348628457195
ORBCOMM FM06            
1 25118U 97084G   25282.74581669  .00002030  00000+0  59826-3 0  9997
2 25118  45.0125 177.4777 0001832  34.6285   2.8310 14.46504817458111
ORBCOMM FM03            
1 25158U 98007B   25282.47955447  .00001216  00000+0  46995-3 0  9994
2 25158 107.9633  10.4257 0042737  47.5319 312.9421 14.34781639440436
ORBCOMM FM04            
1 25159U 98007C   25282.72304762  .00001243  00000+0  47791-3 0  9996
2 25159 107.9619  14.2229 0038552  44.1073 316.3131 14.35026387440655
ORBCOMM FM17            
1 25413U 98046A   25282.41923806  .00001101  00000+0  42937-3 0  9994
2 25413  44.9939  78.4025 0002757  86.8745 273.2417 14.35329776419580
ORBCOMM FM18            
1 25414U 98046B   25282.57942652  .00001510  00000+0  53148-3 0  9992
2 25414  44.9944 351.9593 0004753 166.9378 193.1594 14.38883486420726
ORBCOMM FM19            
1 25415U 98046C   25282.64130590  .00001394  00000+0  49629-3 0  9990
2 25415  44.9956 353.8420 0003537 170.9787 347.6074 14.38699744420684
