<?xml version="1.0" encoding="UTF-8"?>
<ndm xmlns:xsi="http://www.w3.org/2001/XMLSchema-instance" xsi:noNamespaceSchemaLocation="https://sanaregistry.org/r/ndmxml_unqualified/ndmxml-2.0.0-master-2.0.xsd">
<omm id="CCSDS_OMM_VERS" version="2.0">
<header><CREATION_DATE/><ORIGINATOR/></header><body><segment><metadata><OBJECT_NAME>ORBCOMM FM05</OBJECT_NAME><OBJECT_ID>1997-084F</OBJECT_ID><CENTER_NAME>EARTH</CENTER_NAME><REF_FRAME>TEME</REF_FRAME><TIME_SYSTEM>UTC</TIME_SYSTEM><MEAN_ELEMENT_THEORY>SGP4</MEAN_ELEMENT_THEORY></metadata><data><meanElements><EPOCH>2025-10-09T18:11:20.080320</EPOCH><MEAN_MOTION>14.46348628</MEAN_MOTION><ECCENTRICITY>.0002743</ECCENTRICITY><INCLINATION>45.0132</INCLINATION><RA_OF_ASC_NODE>177.8137</RA_OF_ASC_NODE><ARG_OF_PERICENTER>48.5888</ARG_OF_PERICENTER><MEAN_ANOMALY>311.5199</MEAN_ANOMALY></meanElements><tleParameters><EPHEMERIS_TYPE>0</EPHEMERIS_TYPE><CLASSIFICATION_TYPE>U</CLASSIFICATION_TYPE><NORAD_CAT_ID>25117</NORAD_CAT_ID><ELEMENT_SET_NO>999</ELEMENT_SET_NO><REV_AT_EPOCH>45719</REV_AT_EPOCH><BSTAR>.55448E-3</BSTAR><MEAN_MOTION_DOT>.1864E-4</MEAN_MOTION_DOT><MEAN_MOTION_DDOT>0</MEAN_MOTION_DDOT></tleParameters></data></segment></body></omm>
<omm id="CCSDS_OMM_VERS" version="2.0">
<header><CREATION_DATE/><ORIGINATOR/></header><body><segment><metadata><OBJECT_NAME>ORBCOMM FM06</OBJECT_NAME><OBJECT_ID>1997-084G</OBJECT_ID><CENTER_NAME>EARTH</CENTER_NAME><REF_FRAME>TEME</REF_FRAME><TIME_SYSTEM>UTC</TIME_SYSTEM><MEAN_ELEMENT_THEORY>SGP4</MEAN_ELEMENT_THEORY></metadata><data><meanElements><EPOCH>2025-10-09T17:53:58.562016</EPOCH><MEAN_MOTION>14.46504817</MEAN_MOTION><ECCENTRICITY>.0001832</ECCENTRICITY><INCLINATION>45.0125</INCLINATION><RA_OF_ASC_NODE>177.4777</RA_OF_ASC_NODE><ARG_OF_PERICENTER>34.6285</ARG_OF_PERICENTER><MEAN_ANOMALY>2.8310</MEAN_ANOMALY></meanElements><tleParameters><EPHEMERIS_TYPE>0</EPHEMERIS_TYPE><CLASSIFICATION_TYPE>U</CLASSIFICATION_TYPE><NORAD_CAT_ID>25118</NORAD_CAT_ID><ELEMENT_SET_NO>999</ELEMENT_SET_NO><REV_AT_EPOCH>45811</REV_AT_EPOCH><BSTAR>.59826E-3</BSTAR><MEAN_MOTION_DOT>.203E-4</MEAN_MOTION_DOT><MEAN_MOTION_DDOT>0</MEAN_MOTION_DDOT></tleParameters></data></segment></body></omm>
<omm id="CCSDS_OMM_VERS" version="2.0">
<header><CREATION_DATE/><ORIGINATOR/></header><body><segment><metadata><OBJECT_NAME>ORBCOMM FM03</OBJECT_NAME><OBJECT_ID>1998-007B</OBJECT_ID><CENTER_NAME>EARTH</CENTER_NAME><REF_FRAME>TEME</REF_FRAME><TIME_SYSTEM>UTC</TIME_SYSTEM><MEAN_ELEMENT_THEORY>SGP4</MEAN_ELEMENT_THEORY></metadata><data><meanElements><EPOCH>2025-10-09T11:30:33.506208</EPOCH><MEAN_MOTION>14.34781639</MEAN_MOTION><ECCENTRICITY>.0042737</ECCENTRICITY><INCLINATION>107.9633</INCLINATION><RA_OF_ASC_NODE>10.4257</RA_OF_ASC_NODE><ARG_OF_PERICENTER>47.5319</ARG_OF_PERICENTER><MEAN_ANOMALY>312.9421</MEAN_ANOMALY></meanElements><tleParameters><EPHEMERIS_TYPE>0</EPHEMERIS_TYPE><CLASSIFICATION_TYPE>U</CLASSIFICATION_TYPE><NORAD_CAT_ID>25158</NORAD_CAT_ID><ELEMENT_SET_NO>999</ELEMENT_SET_NO><REV_AT_EPOCH>44043</REV_AT_EPOCH><BSTAR>.46995E-3</BSTAR><MEAN_MOTION_DOT>.1216E-4</MEAN_MOTION_DOT><MEAN_MOTION_DDOT>0</MEAN_MOTION_DDOT></tleParameters></data></segment></body></omm>
<omm id="CCSDS_OMM_VERS" version="2.0">
<header><CREATION_DATE/><ORIGINATOR/></header><body><segment><metadata><OBJECT_NAME>ORBCOMM FM04</OBJECT_NAME><OBJECT_ID>1998-007C</OBJECT_ID><CENTER_NAME>EARTH</CENTER_NAME><REF_FRAME>TEME</REF_FRAME><TIME_SYSTEM>UTC</TIME_SYSTEM><MEAN_ELEMENT_THEORY>SGP4</MEAN_ELEMENT_THEORY></metadata><data><meanElements><EPOCH>2025-10-09T17:21:11.314368</EPOCH><MEAN_MOTION>14.35026387</MEAN_MOTION><ECCENTRICITY>.0038552</ECCENTRICITY><INCLINATION>107.9619</INCLINATION><RA_OF_ASC_NODE>14.2229</RA_OF_ASC_NODE><ARG_OF_PERICENTER>44.1073</ARG_OF_PERICENTER><MEAN_ANOMALY>316.3131</MEAN_ANOMALY></meanElements><tleParameters><EPHEMERIS_TYPE>0</EPHEMERIS_TYPE><CLASSIFICATION_TYPE>U</CLASSIFICATION_TYPE><NORAD_CAT_ID>25159</NORAD_CAT_ID><ELEMENT_SET_NO>999</ELEMENT_SET_NO><REV_AT_EPOCH>44065</REV_AT_EPOCH><BSTAR>.47791E-3</BSTAR><MEAN_MOTION_DOT>.1243E-4</MEAN_MOTION_DOT><MEAN_MOTION_DDOT>0</MEAN_MOTION_DDOT></tleParameters></data></segment></body></omm>
<omm id="CCSDS_OMM_VERS" version="2.0">
<header><CREATION_DATE/><ORIGINATOR/></header><body><segment><metadata><OBJECT_NAME>ORBCOMM FM17</OBJECT_NAME><OBJECT_ID>1998-046A</OBJECT_ID><CENTER_NAME>EARTH</CENTER_NAME><REF_FRAME>TEME</REF_FRAME><TIME_SYSTEM>UTC</TIME_SYSTEM><MEAN_ELEMENT_THEORY>SGP4</MEAN_ELEMENT_THEORY></metadata><data><meanElements><EPOCH>2025-10-09T10:03:42.168384</EPOCH><MEAN_MOTION>14.35329776</MEAN_MOTION><ECCENTRICITY>.0002757</ECCENTRICITY><INCLINATION>44.9939</INCLINATION><RA_OF_ASC_NODE>78.4025</RA_OF_ASC_NODE><ARG_OF_PERICENTER>86.8745</ARG_OF_PERICENTER><MEAN_ANOMALY>273.2417</MEAN_ANOMALY></meanElements><tleParameters><EPHEMERIS_TYPE>0</EPHEMERIS_TYPE><CLASSIFICATION_TYPE>U</CLASSIFICATION_TYPE><NORAD_CAT_ID>25413</NORAD_CAT_ID><ELEMENT_SET_NO>999</ELEMENT_SET_NO><REV_AT_EPOCH>41958</REV_AT_EPOCH><BSTAR>.42937E-3</BSTAR><MEAN_MOTION_DOT>.1101E-4</MEAN_MOTION_DOT><MEAN_MOTION_DDOT>0</MEAN_MOTION_DDOT></tleParameters></data></segment></body></omm>
<omm id="CCSDS_OMM_VERS" version="2.0">
<header><CREATION_DATE/><ORIGINATOR/></header><body><segment><metadata><OBJECT_NAME>ORBCOMM FM18</OBJECT_NAME><OBJECT_ID>1998-046B</OBJECT_ID><CENTER_NAME>EARTH</CENTER_NAME><REF_FRAME>TEME</REF_FRAME><TIME_SYSTEM>UTC</TIME_SYSTEM><MEAN_ELEMENT_THEORY>SGP4</MEAN_ELEMENT_THEORY></metadata><data><meanElements><EPOCH>2025-10-09T13:54:22.451328</EPOCH><MEAN_MOTION>14.38883486</MEAN_MOTION><ECCENTRICITY>.0004753</ECCENTRICITY><INCLINATION>44.9944</INCLINATION><RA_OF_ASC_NODE>351.9593</RA_OF_ASC_NODE><ARG_OF_PERICENTER>166.9378</ARG_OF_PERICENTER><MEAN_ANOMALY>193.1594</MEAN_ANOMALY></meanElements><tleParameters><EPHEMERIS_TYPE>0</EPHEMERIS_TYPE><CLASSIFICATION_TYPE>U</CLASSIFICATION_TYPE><NORAD_CAT_ID>25414</NORAD_CAT_ID><ELEMENT_SET_NO>999</ELEMENT_SET_NO><REV_AT_EPOCH>42072</REV_AT_EPOCH><BSTAR>.53148E-3</BSTAR><MEAN_MOTION_DOT>.151E-4</MEAN_MOTION_DOT><MEAN_MOTION_DDOT>0</MEAN_MOTION_DDOT></tleParameters></data></segment></body></omm>
<omm id="CCSDS_OMM_VERS" version="2.0">
<header><CREATION_DATE/><ORIGINATOR/></header><body><segment><metadata><OBJECT_NAME>ORBCOMM FM19</OBJECT_NAME><OBJECT_ID>1998-046C</OBJECT_ID><CENTER_NAME>EARTH</CENTER_NAME><REF_FRAME>TEME</REF_FRAME><TIME_SYSTEM>UTC</TIME_SYSTEM><MEAN_ELEMENT_THEORY>SGP4</MEAN_ELEMENT_THEORY></metadata><data><meanElements><EPOCH>2025-10-09T15:23:28.829760</EPOCH><MEAN_MOTION>14.38699744</MEAN_MOTION><ECCENTRICITY>.0003537</ECCENTRICITY><INCLINATION>44.9956</INCLINATION><RA_OF_ASC_NODE>353.8420</RA_OF_ASC_NODE><ARG_OF_PERICENTER>170.9787</ARG_OF_PERICENTER><MEAN_ANOMALY>347.6074</MEAN_ANOMALY></meanElements><tleParameters><EPHEMERIS_TYPE>0</EPHEMERIS_TYPE><CLASSIFICATION_TYPE>U</CLASSIFICATION_TYPE><NORAD_CAT_ID>25415</NORAD_CAT_ID><ELEMENT_SET_NO>999</ELEMENT_SET_NO><REV_AT_EPOCH>42068</REV_AT_EPOCH><BSTAR>.49629E-3</BSTAR><MEAN_MOTION_DOT>.1394E-4</MEAN_MOTION_DOT><MEAN_MOTION_DDOT>0</MEAN_MOTION_DDOT></tleParameters></data></segment></body></omm>

</ndm>
